[{"OBJECT_NAME":"NUSAT-48 (HENRIETTA LEAVITT)","OBJECT_ID":"2024-149AG","EPOCH":"2026-03-09T19:19:17.269536","MEAN_MOTION":15.29812597,"ECCENTRICITY":0.00027538,"INCLINATION":97.3923,"RA_OF_ASC_NODE":150.8264,"ARG_OF_PERICENTER":263.3026,"MEAN_ANOMALY":96.7901,"EPHEMERIS_TYPE":0,"CLASSIFICATION_TYPE":"U","NORAD_CAT_ID":60498,"ELEMENT_SET_NO":999,"REV_AT_EPOCH":8694,"BSTAR":0.00045211745,"MEAN_MOTION_DOT":0.00012988,"MEAN_MOTION_DDOT":0},{"OBJECT_NAME":"STARLINK-35457","OBJECT_ID":"2025-259M","EPOCH":"2026-03-09T22:42:02.789568","MEAN_MOTION":15.27604667,"ECCENTRICITY":0.00028698,"INCLINATION":43.0058,"RA_OF_ASC_NODE":272.6221,"ARG_OF_PERICENTER":251.7755,"MEAN_ANOMALY":108.2784,"EPHEMERIS_TYPE":0,"CLASSIFICATION_TYPE":"U","NORAD_CAT_ID":66433,"ELEMENT_SET_NO":999,"REV_AT_EPOCH":1953,"BSTAR":0.0014322783,"MEAN_MOTION_DOT":0.00039394,"MEAN_MOTION_DDOT":0}]
